0 COSMOS 2251 DEB
1 34634U 93036XF  13282.47747292  .00000923  00000-0  26085-3 0  7490
2 34634 074.0550 089.8791 0053802 246.0473 144.7388 14.46277050244189
0 COSMOS 2251 DEB
1 34634U 93036XF  13286.84289476  .00001130  00000-0  31736-3 0  7513
2 34634 074.0558 081.7392 0053715 237.0160 193.5609 14.46284024244818
0 COSMOS 2251 DEB
1 34634U 93036XF  13288.85890693  .00001382  00000-0  38638-3 0  7523
2 34634 074.0562 077.9798 0053641 232.8366 250.1050 14.46290545245107
0 COSMOS 2251 DEB
1 34634U 93036XF  13290.86556043  .00001368  00000-0  38258-3 0  7538
2 34634 074.0567 074.2386 0053558 228.6686 257.9740 14.46296368245391
0 COSMOS 2251 DEB
1 34634U 93036XF  13293.48249089  .00001638  00000-0  45639-3 0  7540
2 34634 074.0569 069.3594 0053489 223.2509 203.3638 14.46304029245774
0 COSMOS 2251 DEB
1 34634U 93036XF  13296.10876513  .00001744  00000-0  48540-3 0  7553
2 34634 074.0572 064.4628 0053409 217.8238 197.4675 14.46313256246151
